STARLINK-3624           
1 51773U 22017F   25288.34261614  .00003242  00000+0  22170-3 0  9992
2 51773  53.2168 271.5811 0001860  78.7404 281.3797 15.08838550200664
STARLINK-3629           
1 51774U 22017G   25288.26437105  .00000582  00000+0  54687-4 0  9997
2 51774  53.2171 271.9630 0001422  95.1325 264.9830 15.08838583200617
STARLINK-3620           
1 51775U 22017H   25288.34163335  .00003586  00000+0  24308-3 0  9991
2 51775  53.2169 271.6144 0001568  82.8642 277.2529 15.08875997200665
STARLINK-3608           
1 51776U 22017J   25288.26069517 -.00000058  00000+0  14476-4 0  9998
2 51776  53.2170 271.9762 0001356  92.8987 267.2161 15.08833891200618
STARLINK-3625           
1 51777U 22017K   25288.33156655  .00000525  00000+0  51048-4 0  9991
2 51777  53.2175 271.6315 0001397  93.9047 266.2105 15.08837932200650
STARLINK-3615           
1 51778U 22017L   25288.20271414  .00000515  00000+0  50418-4 0  9998
2 51778  53.2169 262.1101 0001444  92.7194 267.3964 15.08840982200592
STARLINK-3611           
1 51779U 22017M   25288.26165799  .00000013  00000+0  18893-4 0  9997
2 51779  53.2172 272.0215 0001308  91.6354 268.4788 15.08833791200617
STARLINK-3617           
1 51780U 22017N   25288.37844887  .00000638  00000+0  58193-4 0  9993
2 51780  53.2177 271.4386 0001530  92.6796 267.4372 15.08838519200480
STARLINK-3580           
1 51781U 22017P   25288.24964605  .00000402  00000+0  43321-4 0  9997
2 51781  53.2167 271.9873 0001346  90.7996 269.3151 15.08836491200463
STARLINK-3616           
1 51782U 22017Q   25288.28554464  .00000884  00000+0  73611-4 0  9999
2 51782  53.2171 282.0195 0001334  89.9966 270.1179 15.08841820200230
STARLINK-3628           
1 51783U 22017R   25288.25429293  .00000758  00000+0  65720-4 0  9990
2 51783  53.2162 272.0547 0001472  78.8176 281.2982 15.08849641200463
STARLINK-3632           
1 51784U 22017S   25288.39960974  .00000364  00000+0  40973-4 0  9998
2 51784  53.2165 281.3510 0001320  91.9101 268.2042 15.08844473200343
STARLINK-3646           
1 51785U 22017T   25288.24324151  .00000487  00000+0  48660-4 0  9991
2 51785  53.2173 272.0270 0001493  92.4301 267.6862 15.08840017200468
STARLINK-3638           
1 51786U 22017U   25288.25976867  .00000424  00000+0  44734-4 0  9999
2 51786  53.2173 281.9806 0001469  92.2775 267.8385 15.08841234200328
STARLINK-3619           
1 51787U 22017V   25288.20826107 -.00001457  00000+0 -73488-4 0  9993
2 51787  53.2173 282.2132 0001730  84.0194 276.0995 15.08831756200316
STARLINK-3641           
1 51788U 22017W   25288.38120624  .00001208  00000+0  93953-4 0  9995
2 51788  53.2163 281.4361 0001396  85.7256 274.3896 15.08845012201981
