[{"OBJECT_NAME":"STARLINK-3624","OBJECT_ID":"2022-017F","EPOCH":"2025-10-15T08:13:22.034496","MEAN_MOTION":15.0883855,"ECCENTRICITY":0.00018607,"INCLINATION":53.2168,"RA_OF_ASC_NODE":271.5811,"ARG_OF_PERICENTER":78.7404,"MEAN_ANOMALY":281.3797,"EPHEMERIS_TYPE":0,"CLASSIFICATION_TYPE":"U","NORAD_CAT_ID":51773,"ELEMENT_SET_NO":999,"REV_AT_EPOCH":20066,"BSTAR":0.0002216968,"MEAN_MOTION_DOT":3.242e-5,"MEAN_MOTION_DDOT":0},{"OBJECT_NAME":"STARLINK-3629","OBJECT_ID":"2022-017G","EPOCH":"2025-10-15T06:20:41.658720","MEAN_MOTION":15.08838583,"ECCENTRICITY":0.00014222,"INCLINATION":53.2171,"RA_OF_ASC_NODE":271.963,"ARG_OF_PERICENTER":95.1325,"MEAN_ANOMALY":264.983,"EPHEMERIS_TYPE":0,"CLASSIFICATION_TYPE":"U","NORAD_CAT_ID":51774,"ELEMENT_SET_NO":999,"REV_AT_EPOCH":20061,"BSTAR":5.4686757e-5,"MEAN_MOTION_DOT":5.82e-6,"MEAN_MOTION_DDOT":0},{"OBJECT_NAME":"STARLINK-3620","OBJECT_ID":"2022-017H","EPOCH":"2025-10-15T08:11:57.121440","MEAN_MOTION":15.08875997,"ECCENTRICITY":0.00015688,"INCLINATION":53.2169,"RA_OF_ASC_NODE":271.6144,"ARG_OF_PERICENTER":82.8642,"MEAN_ANOMALY":277.2529,"EPHEMERIS_TYPE":0,"CLASSIFICATION_TYPE":"U","NORAD_CAT_ID":51775,"ELEMENT_SET_NO":999,"REV_AT_EPOCH":20066,"BSTAR":0.00024307542,"MEAN_MOTION_DOT":3.586e-5,"MEAN_MOTION_DDOT":0},{"OBJECT_NAME":"STARLINK-3608","OBJECT_ID":"2022-017J","EPOCH":"2025-10-15T06:15:24.062688","MEAN_MOTION":15.08833891,"ECCENTRICITY":0.0001356,"INCLINATION":53.217,"RA_OF_ASC_NODE":271.9762,"ARG_OF_PERICENTER":92.8987,"MEAN_ANOMALY":267.2161,"EPHEMERIS_TYPE":0,"CLASSIFICATION_TYPE":"U","NORAD_CAT_ID":51776,"ELEMENT_SET_NO":999,"REV_AT_EPOCH":20061,"BSTAR":1.4476002e-5,"MEAN_MOTION_DOT":-5.8e-7,"MEAN_MOTION_DDOT":0},{"OBJECT_NAME":"STARLINK-3625","OBJECT_ID":"2022-017K","EPOCH":"2025-10-15T07:57:27.349920","MEAN_MOTION":15.08837932,"ECCENTRICITY":0.00013977,"INCLINATION":53.2175,"RA_OF_ASC_NODE":271.6315,"ARG_OF_PERICENTER":93.9047,"MEAN_ANOMALY":266.2105,"EPHEMERIS_TYPE":0,"CLASSIFICATION_TYPE":"U","NORAD_CAT_ID":51777,"ELEMENT_SET_NO":999,"REV_AT_EPOCH":20065,"BSTAR":5.1048242e-5,"MEAN_MOTION_DOT":5.25e-6,"MEAN_MOTION_DDOT":0},{"OBJECT_NAME":"STARLINK-3615","OBJECT_ID":"2022-017L","EPOCH":"2025-10-15T04:51:54.501696","MEAN_MOTION":15.08840982,"ECCENTRICITY":0.00014449,"INCLINATION":53.2169,"RA_OF_ASC_NODE":262.1101,"ARG_OF_PERICENTER":92.7194,"MEAN_ANOMALY":267.3964,"EPHEMERIS_TYPE":0,"CLASSIFICATION_TYPE":"U","NORAD_CAT_ID":51778,"ELEMENT_SET_NO":999,"REV_AT_EPOCH":20059,"BSTAR":5.0418412e-5,"MEAN_MOTION_DOT":5.15e-6,"MEAN_MOTION_DDOT":0},{"OBJECT_NAME":"STARLINK-3611","OBJECT_ID":"2022-017M","EPOCH":"2025-10-15T06:16:47.250336","MEAN_MOTION":15.08833791,"ECCENTRICITY":0.00013082,"INCLINATION":53.2172,"RA_OF_ASC_NODE":272.0215,"ARG_OF_PERICENTER":91.6354,"MEAN_ANOMALY":268.4788,"EPHEMERIS_TYPE":0,"CLASSIFICATION_TYPE":"U","NORAD_CAT_ID":51779,"ELEMENT_SET_NO":999,"REV_AT_EPOCH":20061,"BSTAR":1.8893124e-5,"MEAN_MOTION_DOT":1.3e-7,"MEAN_MOTION_DDOT":0},{"OBJECT_NAME":"STARLINK-3617","OBJECT_ID":"2022-017N","EPOCH":"2025-10-15T09:04:57.982368","MEAN_MOTION":15.08838519,"ECCENTRICITY":0.00015306,"INCLINATION":53.2177,"RA_OF_ASC_NODE":271.4386,"ARG_OF_PERICENTER":92.6796,"MEAN_ANOMALY":267.4372,"EPHEMERIS_TYPE":0,"CLASSIFICATION_TYPE":"U","NORAD_CAT_ID":51780,"ELEMENT_SET_NO":999,"REV_AT_EPOCH":20048,"BSTAR":5.8193005e-5,"MEAN_MOTION_DOT":6.38e-6,"MEAN_MOTION_DDOT":0},{"OBJECT_NAME":"STARLINK-3580","OBJECT_ID":"2022-017P","EPOCH":"2025-10-15T05:59:29.418720","MEAN_MOTION":15.08836491,"ECCENTRICITY":0.00013465,"INCLINATION":53.2167,"RA_OF_ASC_NODE":271.9873,"ARG_OF_PERICENTER":90.7996,"MEAN_ANOMALY":269.3151,"EPHEMERIS_TYPE":0,"CLASSIFICATION_TYPE":"U","NORAD_CAT_ID":51781,"ELEMENT_SET_NO":999,"REV_AT_EPOCH":20046,"BSTAR":4.3321361e-5,"MEAN_MOTION_DOT":4.02e-6,"MEAN_MOTION_DDOT":0},{"OBJECT_NAME":"STARLINK-3616","OBJECT_ID":"2022-017Q","EPOCH":"2025-10-15T06:51:11.056896","MEAN_MOTION":15.0884182,"ECCENTRICITY":0.00013346,"INCLINATION":53.2171,"RA_OF_ASC_NODE":282.0195,"ARG_OF_PERICENTER":89.9966,"MEAN_ANOMALY":270.1179,"EPHEMERIS_TYPE":0,"CLASSIFICATION_TYPE":"U","NORAD_CAT_ID":51782,"ELEMENT_SET_NO":999,"REV_AT_EPOCH":20023,"BSTAR":7.3610524e-5,"MEAN_MOTION_DOT":8.84e-6,"MEAN_MOTION_DDOT":0},{"OBJECT_NAME":"STARLINK-3628","OBJECT_ID":"2022-017R","EPOCH":"2025-10-15T06:06:10.909152","MEAN_MOTION":15.08849641,"ECCENTRICITY":0.00014729,"INCLINATION":53.2162,"RA_OF_ASC_NODE":272.0547,"ARG_OF_PERICENTER":78.8176,"MEAN_ANOMALY":281.2982,"EPHEMERIS_TYPE":0,"CLASSIFICATION_TYPE":"U","NORAD_CAT_ID":51783,"ELEMENT_SET_NO":999,"REV_AT_EPOCH":20046,"BSTAR":6.5720282e-5,"MEAN_MOTION_DOT":7.58e-6,"MEAN_MOTION_DDOT":0},{"OBJECT_NAME":"STARLINK-3632","OBJECT_ID":"2022-017S","EPOCH":"2025-10-15T09:35:26.281536","MEAN_MOTION":15.08844473,"ECCENTRICITY":0.00013205,"INCLINATION":53.2165,"RA_OF_ASC_NODE":281.351,"ARG_OF_PERICENTER":91.9101,"MEAN_ANOMALY":268.2042,"EPHEMERIS_TYPE":0,"CLASSIFICATION_TYPE":"U","NORAD_CAT_ID":51784,"ELEMENT_SET_NO":999,"REV_AT_EPOCH":20034,"BSTAR":4.0973146e-5,"MEAN_MOTION_DOT":3.64e-6,"MEAN_MOTION_DDOT":0},{"OBJECT_NAME":"STARLINK-3646","OBJECT_ID":"2022-017T","EPOCH":"2025-10-15T05:50:16.066464","MEAN_MOTION":15.08840017,"ECCENTRICITY":0.00014933,"INCLINATION":53.2173,"RA_OF_ASC_NODE":272.027,"ARG_OF_PERICENTER":92.4301,"MEAN_ANOMALY":267.6862,"EPHEMERIS_TYPE":0,"CLASSIFICATION_TYPE":"U","NORAD_CAT_ID":51785,"ELEMENT_SET_NO":999,"REV_AT_EPOCH":20046,"BSTAR":4.8659869e-5,"MEAN_MOTION_DOT":4.87e-6,"MEAN_MOTION_DDOT":0},{"OBJECT_NAME":"STARLINK-3638","OBJECT_ID":"2022-017U","EPOCH":"2025-10-15T06:14:04.013088","MEAN_MOTION":15.08841234,"ECCENTRICITY":0.00014695,"INCLINATION":53.2173,"RA_OF_ASC_NODE":281.9806,"ARG_OF_PERICENTER":92.2775,"MEAN_ANOMALY":267.8385,"EPHEMERIS_TYPE":0,"CLASSIFICATION_TYPE":"U","NORAD_CAT_ID":51786,"ELEMENT_SET_NO":999,"REV_AT_EPOCH":20032,"BSTAR":4.4733551e-5,"MEAN_MOTION_DOT":4.24e-6,"MEAN_MOTION_DDOT":0},{"OBJECT_NAME":"STARLINK-3619","OBJECT_ID":"2022-017V","EPOCH":"2025-10-15T04:59:53.756448","MEAN_MOTION":15.08831756,"ECCENTRICITY":0.00017301,"INCLINATION":53.2173,"RA_OF_ASC_NODE":282.2132,"ARG_OF_PERICENTER":84.0194,"MEAN_ANOMALY":276.0995,"EPHEMERIS_TYPE":0,"CLASSIFICATION_TYPE":"U","NORAD_CAT_ID":51787,"ELEMENT_SET_NO":999,"REV_AT_EPOCH":20031,"BSTAR":-7.348798e-5,"MEAN_MOTION_DOT":-1.457e-5,"MEAN_MOTION_DDOT":0},{"OBJECT_NAME":"STARLINK-3641","OBJECT_ID":"2022-017W","EPOCH":"2025-10-15T09:08:56.219136","MEAN_MOTION":15.08845012,"ECCENTRICITY":0.0001396,"INCLINATION":53.2163,"RA_OF_ASC_NODE":281.4361,"ARG_OF_PERICENTER":85.7256,"MEAN_ANOMALY":274.3896,"EPHEMERIS_TYPE":0,"CLASSIFICATION_TYPE":"U","NORAD_CAT_ID":51788,"ELEMENT_SET_NO":999,"REV_AT_EPOCH":20198,"BSTAR":9.3952839e-5,"MEAN_MOTION_DOT":1.208e-5,"MEAN_MOTION_DDOT":0}]
